STARLINK-33709          
1 63419U 25065W   25282.36642270  .00021580  00000+0  79152-3 0  9992
2 63419  43.0029 241.9097 0001526 275.3944  84.6733 15.27575858 29693
STARLINK-33698          
1 63420U 25065X   25283.23814299  .00039620  00000+0  14406-2 0  9997
2 63420  43.0027 236.3905 0001754 275.1716  84.8936 15.27601685 29838
STARLINK-33606          
1 63421U 25065Y   25283.25613483  .00036939  00000+0  13444-2 0  9993
2 63421  43.0060 236.5372 0001532 266.8905  93.1772 15.27598003 29837
STARLINK-33686          
1 63422U 25065Z   25283.20102932  .00043626  00000+0  15854-2 0  9999
2 63422  43.0056 236.9830 0001403 260.0954  99.9739 15.27582262 29829
STARLINK-33675          
1 63423U 25065AA  25283.23430287  .00026403  00000+0  96577-3 0  9996
2 63423  43.0032 236.3705 0001381 286.8660  73.2040 15.27572230 29839
STARLINK-33655          
1 63424U 25065AB  25283.22415942  .00041814  00000+0  15194-2 0  9995
2 63424  43.0011 237.1511 0000885 268.8618  91.2132 15.27603275 29827
STARLINK-33608          
1 63425U 25065AC  25283.26383836  .00018608  00000+0  68391-3 0  9999
2 63425  43.0091 236.5756 0002208 238.1398 121.9239 15.27585354 29833
STARLINK-33615          
1 63426U 25065AD  25283.22030558  .00028488  00000+0  10404-2 0  9994
2 63426  43.0001 237.1325 0001145 292.9972  67.0759 15.27592427 29824
STARLINK-33682          
1 63433U 25069A   25283.00558708  .00022980  00000+0  78471-3 0  9994
2 63433  53.1603 122.4444 0002194  69.5299 290.5937 15.30236443 30331
STARLINK-33710          
1 63434U 25069B   25283.28372869  .00028909  00000+0  98440-3 0  9992
2 63434  53.1628 121.3344 0001813  85.2756 274.8452 15.30199123 30370
STARLINK-33733          
1 63435U 25069C   25283.28055644  .00026865  00000+0  91548-3 0  9993
2 63435  53.1607 121.3129 0000165 154.5557 205.5452 15.30214034 30377
STARLINK-33638          
1 63436U 25069D   25283.27739935  .00030339  00000+0  10321-2 0  9995
2 63436  53.1549 121.2931 0002458  86.7695 273.3587 15.30204552 30375
STARLINK-33726          
1 63437U 25069E   25283.27212042  .00032669  00000+0  11100-2 0  9995
2 63437  53.1571 121.2607 0001701  82.0244 278.0949 15.30208299 30321
STARLINK-33681          
1 63438U 25069F   25283.26472966  .00032652  00000+0  11092-2 0  9990
2 63438  53.1554 121.2130 0000775  91.7083 268.4007 15.30216071 30372
STARLINK-33730          
1 63439U 25069G   25282.91177900  .00010585  00000+0  36927-3 0  9998
2 63439  53.1553 122.5643 0000876  69.9191 290.1904 15.30174291 30324
STARLINK-33743          
1 63440U 25069H   25283.27423320  .00024344  00000+0  83146-3 0  9993
2 63440  53.1558 121.2725 0002299  83.6270 276.4992 15.30195309 30260
