[{"OBJECT_NAME":"STARLINK-33709","OBJECT_ID":"2025-065W","EPOCH":"2025-10-09T08:47:38.921280","MEAN_MOTION":15.27575858,"ECCENTRICITY":0.0001526,"INCLINATION":43.0029,"RA_OF_ASC_NODE":241.9097,"ARG_OF_PERICENTER":275.3944,"MEAN_ANOMALY":84.6733,"EPHEMERIS_TYPE":0,"CLASSIFICATION_TYPE":"U","NORAD_CAT_ID":63419,"ELEMENT_SET_NO":999,"REV_AT_EPOCH":2969,"BSTAR":0.00079152,"MEAN_MOTION_DOT":0.0002158,"MEAN_MOTION_DDOT":0},{"OBJECT_NAME":"STARLINK-33698","OBJECT_ID":"2025-065X","EPOCH":"2025-10-10T05:42:55.554336","MEAN_MOTION":15.27601685,"ECCENTRICITY":0.00017543,"INCLINATION":43.0027,"RA_OF_ASC_NODE":236.3905,"ARG_OF_PERICENTER":275.1716,"MEAN_ANOMALY":84.8936,"EPHEMERIS_TYPE":0,"CLASSIFICATION_TYPE":"U","NORAD_CAT_ID":63420,"ELEMENT_SET_NO":999,"REV_AT_EPOCH":2983,"BSTAR":0.0014406143,"MEAN_MOTION_DOT":0.0003962,"MEAN_MOTION_DDOT":0},{"OBJECT_NAME":"STARLINK-33606","OBJECT_ID":"2025-065Y","EPOCH":"2025-10-10T06:08:50.049312","MEAN_MOTION":15.27598003,"ECCENTRICITY":0.00015328,"INCLINATION":43.006,"RA_OF_ASC_NODE":236.5372,"ARG_OF_PERICENTER":266.8905,"MEAN_ANOMALY":93.1772,"EPHEMERIS_TYPE":0,"CLASSIFICATION_TYPE":"U","NORAD_CAT_ID":63421,"ELEMENT_SET_NO":999,"REV_AT_EPOCH":2983,"BSTAR":0.0013444231,"MEAN_MOTION_DOT":0.00036939,"MEAN_MOTION_DDOT":0},{"OBJECT_NAME":"STARLINK-33686","OBJECT_ID":"2025-065Z","EPOCH":"2025-10-10T04:49:28.933248","MEAN_MOTION":15.27582262,"ECCENTRICITY":0.00014031,"INCLINATION":43.0056,"RA_OF_ASC_NODE":236.983,"ARG_OF_PERICENTER":260.0954,"MEAN_ANOMALY":99.9739,"EPHEMERIS_TYPE":0,"CLASSIFICATION_TYPE":"U","NORAD_CAT_ID":63422,"ELEMENT_SET_NO":999,"REV_AT_EPOCH":2982,"BSTAR":0.0015854191,"MEAN_MOTION_DOT":0.00043626,"MEAN_MOTION_DDOT":0},{"OBJECT_NAME":"STARLINK-33675","OBJECT_ID":"2025-065AA","EPOCH":"2025-10-10T05:37:23.767968","MEAN_MOTION":15.2757223,"ECCENTRICITY":0.00013818,"INCLINATION":43.0032,"RA_OF_ASC_NODE":236.3705,"ARG_OF_PERICENTER":286.866,"MEAN_ANOMALY":73.204,"EPHEMERIS_TYPE":0,"CLASSIFICATION_TYPE":"U","NORAD_CAT_ID":63423,"ELEMENT_SET_NO":999,"REV_AT_EPOCH":2983,"BSTAR":0.00096577194,"MEAN_MOTION_DOT":0.00026403,"MEAN_MOTION_DDOT":0},{"OBJECT_NAME":"STARLINK-33655","OBJECT_ID":"2025-065AB","EPOCH":"2025-10-10T05:22:47.373888","MEAN_MOTION":15.27603275,"ECCENTRICITY":8.853e-5,"INCLINATION":43.0011,"RA_OF_ASC_NODE":237.1511,"ARG_OF_PERICENTER":268.8618,"MEAN_ANOMALY":91.2132,"EPHEMERIS_TYPE":0,"CLASSIFICATION_TYPE":"U","NORAD_CAT_ID":63424,"ELEMENT_SET_NO":999,"REV_AT_EPOCH":2982,"BSTAR":0.0015193578,"MEAN_MOTION_DOT":0.00041814,"MEAN_MOTION_DDOT":0},{"OBJECT_NAME":"STARLINK-33608","OBJECT_ID":"2025-065AC","EPOCH":"2025-10-10T06:19:55.634304","MEAN_MOTION":15.27585354,"ECCENTRICITY":0.00022087,"INCLINATION":43.0091,"RA_OF_ASC_NODE":236.5756,"ARG_OF_PERICENTER":238.1398,"MEAN_ANOMALY":121.9239,"EPHEMERIS_TYPE":0,"CLASSIFICATION_TYPE":"U","NORAD_CAT_ID":63425,"ELEMENT_SET_NO":999,"REV_AT_EPOCH":2983,"BSTAR":0.00068390571,"MEAN_MOTION_DOT":0.00018608,"MEAN_MOTION_DDOT":0},{"OBJECT_NAME":"STARLINK-33615","OBJECT_ID":"2025-065AD","EPOCH":"2025-10-10T05:17:14.402112","MEAN_MOTION":15.27592427,"ECCENTRICITY":0.00011455,"INCLINATION":43.0001,"RA_OF_ASC_NODE":237.1325,"ARG_OF_PERICENTER":292.9972,"MEAN_ANOMALY":67.0759,"EPHEMERIS_TYPE":0,"CLASSIFICATION_TYPE":"U","NORAD_CAT_ID":63426,"ELEMENT_SET_NO":999,"REV_AT_EPOCH":2982,"BSTAR":0.0010403661,"MEAN_MOTION_DOT":0.00028488,"MEAN_MOTION_DDOT":0},{"OBJECT_NAME":"STARLINK-33682","OBJECT_ID":"2025-069A","EPOCH":"2025-10-10T00:08:02.723712","MEAN_MOTION":15.30236443,"ECCENTRICITY":0.00021946,"INCLINATION":53.1603,"RA_OF_ASC_NODE":122.4444,"ARG_OF_PERICENTER":69.5299,"MEAN_ANOMALY":290.5937,"EPHEMERIS_TYPE":0,"CLASSIFICATION_TYPE":"U","NORAD_CAT_ID":63433,"ELEMENT_SET_NO":999,"REV_AT_EPOCH":3033,"BSTAR":0.00078471478,"MEAN_MOTION_DOT":0.0002298,"MEAN_MOTION_DDOT":0},{"OBJECT_NAME":"STARLINK-33710","OBJECT_ID":"2025-069B","EPOCH":"2025-10-10T06:48:34.158816","MEAN_MOTION":15.30199123,"ECCENTRICITY":0.00018132,"INCLINATION":53.1628,"RA_OF_ASC_NODE":121.3344,"ARG_OF_PERICENTER":85.2756,"MEAN_ANOMALY":274.8452,"EPHEMERIS_TYPE":0,"CLASSIFICATION_TYPE":"U","NORAD_CAT_ID":63434,"ELEMENT_SET_NO":999,"REV_AT_EPOCH":3037,"BSTAR":0.00098440118,"MEAN_MOTION_DOT":0.00028909,"MEAN_MOTION_DDOT":0},{"OBJECT_NAME":"STARLINK-33733","OBJECT_ID":"2025-069C","EPOCH":"2025-10-10T06:44:00.076416","MEAN_MOTION":15.30214034,"ECCENTRICITY":1.657e-5,"INCLINATION":53.1607,"RA_OF_ASC_NODE":121.3129,"ARG_OF_PERICENTER":154.5557,"MEAN_ANOMALY":205.5452,"EPHEMERIS_TYPE":0,"CLASSIFICATION_TYPE":"U","NORAD_CAT_ID":63435,"ELEMENT_SET_NO":999,"REV_AT_EPOCH":3037,"BSTAR":0.00091547893,"MEAN_MOTION_DOT":0.00026865,"MEAN_MOTION_DDOT":0},{"OBJECT_NAME":"STARLINK-33638","OBJECT_ID":"2025-069D","EPOCH":"2025-10-10T06:39:27.303840","MEAN_MOTION":15.30204552,"ECCENTRICITY":0.00024584,"INCLINATION":53.1549,"RA_OF_ASC_NODE":121.2931,"ARG_OF_PERICENTER":86.7695,"MEAN_ANOMALY":273.3587,"EPHEMERIS_TYPE":0,"CLASSIFICATION_TYPE":"U","NORAD_CAT_ID":63436,"ELEMENT_SET_NO":999,"REV_AT_EPOCH":3037,"BSTAR":0.0010320919,"MEAN_MOTION_DOT":0.00030339,"MEAN_MOTION_DDOT":0},{"OBJECT_NAME":"STARLINK-33726","OBJECT_ID":"2025-069E","EPOCH":"2025-10-10T06:31:51.204288","MEAN_MOTION":15.30208299,"ECCENTRICITY":0.00017015,"INCLINATION":53.1571,"RA_OF_ASC_NODE":121.2607,"ARG_OF_PERICENTER":82.0244,"MEAN_ANOMALY":278.0949,"EPHEMERIS_TYPE":0,"CLASSIFICATION_TYPE":"U","NORAD_CAT_ID":63437,"ELEMENT_SET_NO":999,"REV_AT_EPOCH":3032,"BSTAR":0.0011099906,"MEAN_MOTION_DOT":0.00032669,"MEAN_MOTION_DDOT":0},{"OBJECT_NAME":"STARLINK-33681","OBJECT_ID":"2025-069F","EPOCH":"2025-10-10T06:21:12.642624","MEAN_MOTION":15.30216071,"ECCENTRICITY":7.754e-5,"INCLINATION":53.1554,"RA_OF_ASC_NODE":121.213,"ARG_OF_PERICENTER":91.7083,"MEAN_ANOMALY":268.4007,"EPHEMERIS_TYPE":0,"CLASSIFICATION_TYPE":"U","NORAD_CAT_ID":63438,"ELEMENT_SET_NO":999,"REV_AT_EPOCH":3037,"BSTAR":0.001109169,"MEAN_MOTION_DOT":0.00032652,"MEAN_MOTION_DDOT":0},{"OBJECT_NAME":"STARLINK-33730","OBJECT_ID":"2025-069G","EPOCH":"2025-10-09T21:52:57.705600","MEAN_MOTION":15.30174291,"ECCENTRICITY":8.76e-5,"INCLINATION":53.1553,"RA_OF_ASC_NODE":122.5643,"ARG_OF_PERICENTER":69.9191,"MEAN_ANOMALY":290.1904,"EPHEMERIS_TYPE":0,"CLASSIFICATION_TYPE":"U","NORAD_CAT_ID":63439,"ELEMENT_SET_NO":999,"REV_AT_EPOCH":3032,"BSTAR":0.00036927,"MEAN_MOTION_DOT":0.00010585,"MEAN_MOTION_DDOT":0},{"OBJECT_NAME":"STARLINK-33743","OBJECT_ID":"2025-069H","EPOCH":"2025-10-10T06:34:53.748480","MEAN_MOTION":15.30195309,"ECCENTRICITY":0.00022997,"INCLINATION":53.1558,"RA_OF_ASC_NODE":121.2725,"ARG_OF_PERICENTER":83.627,"MEAN_ANOMALY":276.4992,"EPHEMERIS_TYPE":0,"CLASSIFICATION_TYPE":"U","NORAD_CAT_ID":63440,"ELEMENT_SET_NO":999,"REV_AT_EPOCH":3026,"BSTAR":0.00083145505,"MEAN_MOTION_DOT":0.00024344,"MEAN_MOTION_DDOT":0}]
